CCSDS_OMM_VERS = 2.0
CREATION_DATE  = 
ORIGINATOR     = 

OBJECT_NAME    = STARLINK-34986
OBJECT_ID      = 2025-259AA
CENTER_NAME    = EARTH
REF_FRAME      = TEME
TIME_SYSTEM    = UTC
MEAN_ELEMENT_THEORY = SGP/SGP4

EPOCH          = 2025-12-11T06:00:02.999808
MEAN_MOTION    = 15.43230573
ECCENTRICITY   = .00011934
INCLINATION    = 43.0006
RA_OF_ASC_NODE = 56.0042
ARG_OF_PERICENTER = 261.8921
MEAN_ANOMALY   = 332.8468

EPHEMERIS_TYPE = 0
CLASSIFICATION_TYPE = U
NORAD_CAT_ID   = 66446
ELEMENT_SET_NO = 999
REV_AT_EPOCH   = 604
BSTAR          = -.46729958E-1
MEAN_MOTION_DOT = -.1904447E-1
MEAN_MOTION_DDOT = 0

CCSDS_OMM_VERS = 2.0
CREATION_DATE  = 
ORIGINATOR     = 

OBJECT_NAME    = STARLINK-34851
OBJECT_ID      = 2025-259AB
CENTER_NAME    = EARTH
REF_FRAME      = TEME
TIME_SYSTEM    = UTC
MEAN_ELEMENT_THEORY = SGP/SGP4

EPOCH          = 2025-12-10T05:41:44.121408
MEAN_MOTION    = 15.50651186
ECCENTRICITY   = .0001321
INCLINATION    = 42.9984
RA_OF_ASC_NODE = 61.8661
ARG_OF_PERICENTER = 284.8329
MEAN_ANOMALY   = 75.2384

EPHEMERIS_TYPE = 0
CLASSIFICATION_TYPE = U
NORAD_CAT_ID   = 66447
ELEMENT_SET_NO = 999
REV_AT_EPOCH   = 567
BSTAR          = .17574E-2
MEAN_MOTION_DOT = .104412E-2
MEAN_MOTION_DDOT = 0

CCSDS_OMM_VERS = 2.0
CREATION_DATE  = 
ORIGINATOR     = 

OBJECT_NAME    = STARLINK-35355
OBJECT_ID      = 2025-259AC
CENTER_NAME    = EARTH
REF_FRAME      = TEME
TIME_SYSTEM    = UTC
MEAN_ELEMENT_THEORY = SGP/SGP4

EPOCH          = 2025-12-10T13:25:01.560576
MEAN_MOTION    = 15.50609670
ECCENTRICITY   = .0004361
INCLINATION    = 43.0057
RA_OF_ASC_NODE = 59.9766
ARG_OF_PERICENTER = 272.1256
MEAN_ANOMALY   = 87.9104

EPHEMERIS_TYPE = 0
CLASSIFICATION_TYPE = U
NORAD_CAT_ID   = 66448
ELEMENT_SET_NO = 999
REV_AT_EPOCH   = 583
BSTAR          = .19215E-2
MEAN_MOTION_DOT = .114197E-2
MEAN_MOTION_DDOT = 0

CCSDS_OMM_VERS = 2.0
CREATION_DATE  = 
ORIGINATOR     = 

OBJECT_NAME    = STARLINK-34720
OBJECT_ID      = 2025-259AD
CENTER_NAME    = EARTH
REF_FRAME      = TEME
TIME_SYSTEM    = UTC
MEAN_ELEMENT_THEORY = SGP/SGP4

EPOCH          = 2025-12-11T04:52:25.600512
MEAN_MOTION    = 15.49323292
ECCENTRICITY   = .00009433
INCLINATION    = 42.9984
RA_OF_ASC_NODE = 56.2087
ARG_OF_PERICENTER = 176.8465
MEAN_ANOMALY   = 183.2401

EPHEMERIS_TYPE = 0
CLASSIFICATION_TYPE = U
NORAD_CAT_ID   = 66449
ELEMENT_SET_NO = 999
REV_AT_EPOCH   = 582
BSTAR          = -.15734267E-1
MEAN_MOTION_DOT = -.809235E-2
MEAN_MOTION_DDOT = 0

CCSDS_OMM_VERS = 2.0
CREATION_DATE  = 
ORIGINATOR     = 

OBJECT_NAME    = STARLINK-35334
OBJECT_ID      = 2025-259AE
CENTER_NAME    = EARTH
REF_FRAME      = TEME
TIME_SYSTEM    = UTC
MEAN_ELEMENT_THEORY = SGP/SGP4

EPOCH          = 2025-12-10T13:24:02.373120
MEAN_MOTION    = 15.50613633
ECCENTRICITY   = .0002029
INCLINATION    = 43.0030
RA_OF_ASC_NODE = 59.9713
ARG_OF_PERICENTER = 266.8420
MEAN_ANOMALY   = 93.2208

EPHEMERIS_TYPE = 0
CLASSIFICATION_TYPE = U
NORAD_CAT_ID   = 66450
ELEMENT_SET_NO = 999
REV_AT_EPOCH   = 583
BSTAR          = .21725E-2
MEAN_MOTION_DOT = .129395E-2
MEAN_MOTION_DDOT = 0

CCSDS_OMM_VERS = 2.0
CREATION_DATE  = 
ORIGINATOR     = 

OBJECT_NAME    = VIASAT-3 F2
OBJECT_ID      = 2025-261A
CENTER_NAME    = EARTH
REF_FRAME      = TEME
TIME_SYSTEM    = UTC
MEAN_ELEMENT_THEORY = SGP/SGP4

EPOCH          = 2025-12-08T12:11:15.383616
MEAN_MOTION    = 2.19142646
ECCENTRICITY   = .22792154
INCLINATION    = 5.4570
RA_OF_ASC_NODE = 292.6501
ARG_OF_PERICENTER = 190.5469
MEAN_ANOMALY   = 204.5187

EPHEMERIS_TYPE = 0
CLASSIFICATION_TYPE = U
NORAD_CAT_ID   = 66454
ELEMENT_SET_NO = 999
REV_AT_EPOCH   = 55
BSTAR          = 0
MEAN_MOTION_DOT = -.81E-6
MEAN_MOTION_DDOT = 0

CCSDS_OMM_VERS = 2.0
CREATION_DATE  = 
ORIGINATOR     = 

OBJECT_NAME    = ATLAS 5 CENTAUR R/B
OBJECT_ID      = 2025-261B
CENTER_NAME    = EARTH
REF_FRAME      = TEME
TIME_SYSTEM    = UTC
MEAN_ELEMENT_THEORY = SGP/SGP4

EPOCH          = 2025-12-11T00:49:11.265024
MEAN_MOTION    = 2.28259787
ECCENTRICITY   = .23294877
INCLINATION    = 6.1479
RA_OF_ASC_NODE = 291.7870
ARG_OF_PERICENTER = 186.1415
MEAN_ANOMALY   = 183.1915

EPHEMERIS_TYPE = 0
CLASSIFICATION_TYPE = U
NORAD_CAT_ID   = 66455
ELEMENT_SET_NO = 999
REV_AT_EPOCH   = 61
BSTAR          = 0
MEAN_MOTION_DOT = -.79E-6
MEAN_MOTION_DDOT = 0

CCSDS_OMM_VERS = 2.0
CREATION_DATE  = 
ORIGINATOR     = 

OBJECT_NAME    = STARLINK-35643
OBJECT_ID      = 2025-262A
CENTER_NAME    = EARTH
REF_FRAME      = TEME
TIME_SYSTEM    = UTC
MEAN_ELEMENT_THEORY = SGP/SGP4

EPOCH          = 2025-12-11T06:00:02.999808
MEAN_MOTION    = 15.40674537
ECCENTRICITY   = .0001351
INCLINATION    = 42.9999
RA_OF_ASC_NODE = 80.1951
ARG_OF_PERICENTER = 257.7994
MEAN_ANOMALY   = 260.9129

EPHEMERIS_TYPE = 0
CLASSIFICATION_TYPE = U
NORAD_CAT_ID   = 66456
ELEMENT_SET_NO = 999
REV_AT_EPOCH   = 539
BSTAR          = -.40260771E-3
MEAN_MOTION_DOT = -.17069E-3
MEAN_MOTION_DDOT = 0

CCSDS_OMM_VERS = 2.0
CREATION_DATE  = 
ORIGINATOR     = 

OBJECT_NAME    = STARLINK-35466
OBJECT_ID      = 2025-262B
CENTER_NAME    = EARTH
REF_FRAME      = TEME
TIME_SYSTEM    = UTC
MEAN_ELEMENT_THEORY = SGP/SGP4

EPOCH          = 2025-12-11T06:00:02.999808
MEAN_MOTION    = 15.40644341
ECCENTRICITY   = .00010919
INCLINATION    = 42.9998
RA_OF_ASC_NODE = 80.1343
ARG_OF_PERICENTER = 262.8421
MEAN_ANOMALY   = 280.7539

EPHEMERIS_TYPE = 0
CLASSIFICATION_TYPE = U
NORAD_CAT_ID   = 66457
ELEMENT_SET_NO = 999
REV_AT_EPOCH   = 539
BSTAR          = .18815368E-2
MEAN_MOTION_DOT = .78964E-3
MEAN_MOTION_DDOT = 0

CCSDS_OMM_VERS = 2.0
CREATION_DATE  = 
ORIGINATOR     = 

OBJECT_NAME    = STARLINK-35684
OBJECT_ID      = 2025-262C
CENTER_NAME    = EARTH
REF_FRAME      = TEME
TIME_SYSTEM    = UTC
MEAN_ELEMENT_THEORY = SGP/SGP4

EPOCH          = 2025-12-11T06:00:02.999808
MEAN_MOTION    = 15.40777264
ECCENTRICITY   = .0001075
INCLINATION    = 42.9999
RA_OF_ASC_NODE = 80.1642
ARG_OF_PERICENTER = 276.2607
MEAN_ANOMALY   = 254.8090

EPHEMERIS_TYPE = 0
CLASSIFICATION_TYPE = U
NORAD_CAT_ID   = 66458
ELEMENT_SET_NO = 999
REV_AT_EPOCH   = 539
BSTAR          = -.30984135E-2
MEAN_MOTION_DOT = -.12791E-2
MEAN_MOTION_DDOT = 0

CCSDS_OMM_VERS = 2.0
CREATION_DATE  = 
ORIGINATOR     = 

OBJECT_NAME    = STARLINK-35449
OBJECT_ID      = 2025-262D
CENTER_NAME    = EARTH
REF_FRAME      = TEME
TIME_SYSTEM    = UTC
MEAN_ELEMENT_THEORY = SGP/SGP4

EPOCH          = 2025-12-11T06:00:02.999808
MEAN_MOTION    = 15.40708879
ECCENTRICITY   = .00013868
INCLINATION    = 43.0000
RA_OF_ASC_NODE = 80.1032
ARG_OF_PERICENTER = 256.6810
MEAN_ANOMALY   = 299.3502

EPHEMERIS_TYPE = 0
CLASSIFICATION_TYPE = U
NORAD_CAT_ID   = 66459
ELEMENT_SET_NO = 999
REV_AT_EPOCH   = 539
BSTAR          = -.15273312E-2
MEAN_MOTION_DOT = -.63593E-3
MEAN_MOTION_DDOT = 0

CCSDS_OMM_VERS = 2.0
CREATION_DATE  = 
ORIGINATOR     = 

OBJECT_NAME    = STARLINK-35424
OBJECT_ID      = 2025-262E
CENTER_NAME    = EARTH
REF_FRAME      = TEME
TIME_SYSTEM    = UTC
MEAN_ELEMENT_THEORY = SGP/SGP4

EPOCH          = 2025-12-11T06:00:02.999808
MEAN_MOTION    = 15.40676642
ECCENTRICITY   = .00014287
INCLINATION    = 43.0001
RA_OF_ASC_NODE = 80.0733
ARG_OF_PERICENTER = 260.5798
MEAN_ANOMALY   = 307.8662

EPHEMERIS_TYPE = 0
CLASSIFICATION_TYPE = U
NORAD_CAT_ID   = 66460
ELEMENT_SET_NO = 999
REV_AT_EPOCH   = 539
BSTAR          = -.32430047E-4
MEAN_MOTION_DOT = -.1657E-4
MEAN_MOTION_DDOT = 0

