STARLINK-34986          
1 66446U 25259AA  25345.25003472 -.01904447  00000+0 -46730-1 0  9992
2 66446  43.0006  56.0042 0001193 261.8921 332.8468 15.43230573  6048
STARLINK-34851          
1 66447U 25259AB  25344.23731622  .00104412  00000+0  17574-2 0  9991
2 66447  42.9984  61.8661 0001321 284.8329  75.2384 15.50651186  5671
STARLINK-35355          
1 66448U 25259AC  25344.55904584  .00114197  00000+0  19215-2 0  9991
2 66448  43.0057  59.9766 0004361 272.1256  87.9104 15.50609670  5834
STARLINK-34720          
1 66449U 25259AD  25345.20307408 -.00809235  00000+0 -15734-1 0  9994
2 66449  42.9984  56.2087 0000943 176.8465 183.2401 15.49323292  5822
STARLINK-35334          
1 66450U 25259AE  25344.55836080  .00129395  00000+0  21725-2 0  9994
2 66450  43.0030  59.9713 0002029 266.8420  93.2208 15.50613633  5831
VIASAT-3 F2             
1 66454U 25261A   25342.50781694 -.00000081  00000+0  00000+0 0  9995
2 66454   5.4570 292.6501 2279215 190.5469 204.5187  2.19142646   557
ATLAS 5 CENTAUR R/B     
1 66455U 25261B   25345.03415816 -.00000079  00000+0  00000+0 0  9994
2 66455   6.1479 291.7870 2329487 186.1415 183.1915  2.28259787   615
STARLINK-35643          
1 66456U 25262A   25345.25003472 -.00017069  00000+0 -40261-3 0  9996
2 66456  42.9999  80.1951 0001351 257.7994 260.9129 15.40674537  5396
STARLINK-35466          
1 66457U 25262B   25345.25003472  .00078964  00000+0  18815-2 0  9995
2 66457  42.9998  80.1343 0001091 262.8421 280.7539 15.40644341  5399
STARLINK-35684          
1 66458U 25262C   25345.25003472 -.00127910  00000+0 -30984-2 0  9995
2 66458  42.9999  80.1642 0001075 276.2607 254.8090 15.40777264  5395
STARLINK-35449          
1 66459U 25262D   25345.25003472 -.00063593  00000+0 -15273-2 0  9996
2 66459  43.0000  80.1032 0001386 256.6810 299.3502 15.40708879  5395
STARLINK-35424          
1 66460U 25262E   25345.25003472 -.00001657  00000+0 -32430-4 0  9997
2 66460  43.0001  80.0733 0001428 260.5798 307.8662 15.40676642  5395
